start=new Date('2022-05-27T00:00:00.000Z').valueOf();
sats=[{"MEAN_MOTION":"15.06399676","TLE_LINE2":"2 48673  53.0542 199.2863 0001772  54.0613 306.0541 15.06399676 55420","EPOCH":"2022-05-26T21:10:02.664192","DECAY_DATE":null,"REV_AT_EPOCH":"5542","LAUNCH_DATE":"2021-05-26","CLASSIFICATION_TYPE":"U","INCLINATION":"53.0542","PERIOD":"95.592","CENTER_NAME":"EARTH","TLE_LINE1":"1 48673U 21044AM  22146.88197528  .00001612  00000-0  12713-3 0  9999","REF_FRAME":"TEME","RCS_SIZE":"LARGE","ARG_OF_PERICENTER":"54.0613","OBJECT_TYPE":"PAYLOAD","EPHEMERIS_TYPE":"0","RA_OF_ASC_NODE":"199.2863","MEAN_ANOMALY":"306.0541","OBJECT_NAME":"STARLINK-2711","SEMIMAJOR_AXIS":"6925.350","GP_ID":"204627603","MEAN_MOTION_DOT":"0.00001612","SITE":"AFETR","OBJECT_ID":"2021-044AM","MEAN_ELEMENT_THEORY":"SGP4","TIME_SYSTEM":"UTC","ELEMENT_SET_NO":"999","APOAPSIS":"548.442","ECCENTRICITY":"0.00017720","NORAD_CAT_ID":"48673","PERIAPSIS":"545.987","COUNTRY_CODE":"US","FILE":"3466271","MEAN_MOTION_DDOT":"0.0000000000000","BSTAR":"0.00012713000000"},{"MEAN_MOTION_DOT":"0.00001425","SITE":"AFETR","GP_ID":"204627853","SEMIMAJOR_AXIS":"6925.358","OBJECT_ID":"2021-044AN","TIME_SYSTEM":"UTC","ELEMENT_SET_NO":"999","MEAN_ELEMENT_THEORY":"SGP4","ECCENTRICITY":"0.00017750","APOAPSIS":"548.452","NORAD_CAT_ID":"48674","COUNTRY_CODE":"US","PERIAPSIS":"545.994","FILE":"3466271","MEAN_MOTION_DDOT":"0.0000000000000","BSTAR":"0.00011453000000","TLE_LINE2":"2 48674  53.0557 199.2976 0001775  59.0191 301.0972 15.06396957 55423","MEAN_MOTION":"15.06396957","EPOCH":"2022-05-26T21:03:22.689216","DECAY_DATE":null,"LAUNCH_DATE":"2021-05-26","REV_AT_EPOCH":"5542","CLASSIFICATION_TYPE":"U","INCLINATION":"53.0557","CENTER_NAME":"EARTH","PERIOD":"95.592","TLE_LINE1":"1 48674U 21044AN  22146.87734594  .00001425  00000-0  11453-3 0  9991","RCS_SIZE":"LARGE","ARG_OF_PERICENTER":"59.0191","REF_FRAME":"TEME","RA_OF_ASC_NODE":"199.2976","MEAN_ANOMALY":"301.0972","OBJECT_TYPE":"PAYLOAD","EPHEMERIS_TYPE":"0","OBJECT_NAME":"STARLINK-2712"},{"COUNTRY_CODE":"US","PERIAPSIS":"546.106","FILE":"3466271","MEAN_MOTION_DDOT":"0.0000000000000","BSTAR":"0.00026893000000","APOAPSIS":"548.319","ECCENTRICITY":"0.00015980","NORAD_CAT_ID":"48675","OBJECT_ID":"2021-044AP","TIME_SYSTEM":"UTC","ELEMENT_SET_NO":"999","MEAN_ELEMENT_THEORY":"SGP4","MEAN_MOTION_DOT":"0.00003726","SITE":"AFETR","SEMIMAJOR_AXIS":"6925.347","GP_ID":"204626602","RA_OF_ASC_NODE":"199.3257","MEAN_ANOMALY":"294.9172","OBJECT_TYPE":"PAYLOAD","EPHEMERIS_TYPE":"0","OBJECT_NAME":"STARLINK-2737","CENTER_NAME":"EARTH","PERIOD":"95.592","TLE_LINE1":"1 48675U 21044AP  22146.87460978  .00003726  00000-0  26893-3 0  9994","REF_FRAME":"TEME","RCS_SIZE":"LARGE","ARG_OF_PERICENTER":"65.1983","LAUNCH_DATE":"2021-05-26","REV_AT_EPOCH":"5542","CLASSIFICATION_TYPE":"U","INCLINATION":"53.0542","TLE_LINE2":"2 48675  53.0542 199.3257 0001598  65.1983 294.9172 15.06400392 55422","MEAN_MOTION":"15.06400392","EPOCH":"2022-05-26T20:59:26.284992","DECAY_DATE":null},{"EPHEMERIS_TYPE":"0","OBJECT_TYPE":"PAYLOAD","MEAN_ANOMALY":"312.1196","RA_OF_ASC_NODE":"199.3390","OBJECT_NAME":"STARLINK-2746","PERIOD":"95.592","CENTER_NAME":"EARTH","RCS_SIZE":"LARGE","TLE_LINE1":"1 48676U 21044AQ  22146.87092190  .00002132  00000-0  16196-3 0  9997","ARG_OF_PERICENTER":"47.9934","REF_FRAME":"TEME","REV_AT_EPOCH":"5542","LAUNCH_DATE":"2021-05-26","INCLINATION":"53.0529","CLASSIFICATION_TYPE":"U","MEAN_MOTION":"15.06406763","TLE_LINE2":"2 48676  53.0529 199.3390 0001657  47.9934 312.1196 15.06406763 55423","DECAY_DATE":null,"EPOCH":"2022-05-26T20:54:07.652160","FILE":"3466271","COUNTRY_CODE":"US","PERIAPSIS":"546.045","BSTAR":"0.00016196000000","MEAN_MOTION_DDOT":"0.0000000000000","APOAPSIS":"548.340","ECCENTRICITY":"0.00016570","NORAD_CAT_ID":"48676","OBJECT_ID":"2021-044AQ","MEAN_ELEMENT_THEORY":"SGP4","ELEMENT_SET_NO":"999","TIME_SYSTEM":"UTC","SEMIMAJOR_AXIS":"6925.328","GP_ID":"204626852","SITE":"AFETR","MEAN_MOTION_DOT":"0.00002132"},{"NORAD_CAT_ID":"48677","APOAPSIS":"548.240","ECCENTRICITY":"0.00014610","MEAN_MOTION_DDOT":"0.0000000000000","BSTAR":"-0.00000990710000","COUNTRY_CODE":"US","PERIAPSIS":"546.217","FILE":"3466271","SEMIMAJOR_AXIS":"6925.364","GP_ID":"204627104","MEAN_MOTION_DOT":"-0.00000429","SITE":"AFETR","MEAN_ELEMENT_THEORY":"SGP4","TIME_SYSTEM":"UTC","ELEMENT_SET_NO":"999","OBJECT_ID":"2021-044AR","TLE_LINE1":"1 48677U 21044AR  22146.86723554 -.00000429  00000-0 -99071-5 0  9996","RCS_SIZE":"LARGE","REF_FRAME":"TEME","ARG_OF_PERICENTER":"62.5465","PERIOD":"95.592","CENTER_NAME":"EARTH","OBJECT_NAME":"STARLINK-2719","OBJECT_TYPE":"PAYLOAD","EPHEMERIS_TYPE":"0","RA_OF_ASC_NODE":"199.3573","MEAN_ANOMALY":"297.5672","EPOCH":"2022-05-26T20:48:49.150656","DECAY_DATE":null,"MEAN_MOTION":"15.06395116","TLE_LINE2":"2 48677  53.0545 199.3573 0001461  62.5465 297.5672 15.06395116 55424","CLASSIFICATION_TYPE":"U","INCLINATION":"53.0545","REV_AT_EPOCH":"5542","LAUNCH_DATE":"2021-05-26"},{"LAUNCH_DATE":"2021-05-26","REV_AT_EPOCH":"5542","INCLINATION":"53.0545","CLASSIFICATION_TYPE":"U","TLE_LINE2":"2 48678  53.0545 199.3701 0001659  59.6983 300.4170 15.06392998 55421","MEAN_MOTION":"15.06392998","EPOCH":"2022-05-26T20:43:30.665568","DECAY_DATE":null,"RA_OF_ASC_NODE":"199.3701","MEAN_ANOMALY":"300.4170","OBJECT_TYPE":"PAYLOAD","EPHEMERIS_TYPE":"0","OBJECT_NAME":"STARLINK-2615","CENTER_NAME":"EARTH","PERIOD":"95.593","RCS_SIZE":"LARGE","TLE_LINE1":"1 48678U 21044AS  22146.86354937 -.00000005  00000-0  18538-4 0  9999","ARG_OF_PERICENTER":"59.6983","REF_FRAME":"TEME","OBJECT_ID":"2021-044AS","TIME_SYSTEM":"UTC","ELEMENT_SET_NO":"999","MEAN_ELEMENT_THEORY":"SGP4","MEAN_MOTION_DOT":"-0.00000005","SITE":"AFETR","SEMIMAJOR_AXIS":"6925.370","GP_ID":"204627355","PERIAPSIS":"546.086","COUNTRY_CODE":"US","FILE":"3466271","MEAN_MOTION_DDOT":"0.0000000000000","BSTAR":"0.00001853800000","ECCENTRICITY":"0.00016590","APOAPSIS":"548.384","NORAD_CAT_ID":"48678"},{"OBJECT_TYPE":"PAYLOAD","EPHEMERIS_TYPE":"0","RA_OF_ASC_NODE":"199.3919","MEAN_ANOMALY":"295.9362","OBJECT_NAME":"STARLINK-2648","PERIOD":"95.592","CENTER_NAME":"EARTH","ARG_OF_PERICENTER":"64.1793","TLE_LINE1":"1 48679U 21044AT  22146.85986302  .00002774  00000-0  20508-3 0  9999","RCS_SIZE":"LARGE","REF_FRAME":"TEME","REV_AT_EPOCH":"5542","LAUNCH_DATE":"2021-05-26","CLASSIFICATION_TYPE":"U","INCLINATION":"53.0543","MEAN_MOTION":"15.06394579","TLE_LINE2":"2 48679  53.0543 199.3919 0001613  64.1793 295.9362 15.06394579 55429","EPOCH":"2022-05-26T20:38:12.164928","DECAY_DATE":null,"COUNTRY_CODE":"US","PERIAPSIS":"546.113","FILE":"3466271","MEAN_MOTION_DDOT":"0.0000000000000","BSTAR":"0.00020508000000","APOAPSIS":"548.347","ECCENTRICITY":"0.00016130","NORAD_CAT_ID":"48679","OBJECT_ID":"2021-044AT","MEAN_ELEMENT_THEORY":"SGP4","TIME_SYSTEM":"UTC","ELEMENT_SET_NO":"999","SEMIMAJOR_AXIS":"6925.365","GP_ID":"204626103","MEAN_MOTION_DOT":"0.00002774","SITE":"AFETR"},{"CENTER_NAME":"EARTH","PERIOD":"95.592","TLE_LINE1":"1 48680U 21044AU  22146.45809090  .00001679  00000-0  13161-3 0  9995","REF_FRAME":"TEME","RCS_SIZE":"LARGE","ARG_OF_PERICENTER":"61.9592","MEAN_ANOMALY":"298.1571","RA_OF_ASC_NODE":"201.1990","EPHEMERIS_TYPE":"0","OBJECT_TYPE":"PAYLOAD","OBJECT_NAME":"STARLINK-2649","TLE_LINE2":"2 48680  53.0573 201.1990 0001719  61.9592 298.1571 15.06395744 55369","MEAN_MOTION":"15.06395744","DECAY_DATE":null,"EPOCH":"2022-05-26T10:59:39.053760","LAUNCH_DATE":"2021-05-26","REV_AT_EPOCH":"5536","CLASSIFICATION_TYPE":"U","INCLINATION":"53.0573","APOAPSIS":"548.417","ECCENTRICITY":"0.00017190","NORAD_CAT_ID":"48680","FILE":"3465646","COUNTRY_CODE":"US","PERIAPSIS":"546.036","BSTAR":"0.00013161000000","MEAN_MOTION_DDOT":"0.0000000000000","SITE":"AFETR","MEAN_MOTION_DOT":"0.00001679","SEMIMAJOR_AXIS":"6925.362","GP_ID":"204589641","OBJECT_ID":"2021-044AU","ELEMENT_SET_NO":"999","TIME_SYSTEM":"UTC","MEAN_ELEMENT_THEORY":"SGP4"},{"BSTAR":"-0.03422100000000","MEAN_MOTION_DDOT":"0.0000000000000","FILE":"3466271","PERIAPSIS":"550.343","COUNTRY_CODE":"US","NORAD_CAT_ID":"48681","ECCENTRICITY":"0.00014300","APOAPSIS":"552.325","ELEMENT_SET_NO":"999","TIME_SYSTEM":"UTC","MEAN_ELEMENT_THEORY":"SGP4","OBJECT_ID":"2021-044AV","SITE":"AFETR","MEAN_MOTION_DOT":"-0.00465398","GP_ID":"204627604","SEMIMAJOR_AXIS":"6929.469","OBJECT_NAME":"STARLINK-2725","MEAN_ANOMALY":"32.0918","RA_OF_ASC_NODE":"169.1288","EPHEMERIS_TYPE":"0","OBJECT_TYPE":"PAYLOAD","RCS_SIZE":"LARGE","TLE_LINE1":"1 48681U 21044AV  22146.91667824 -.00465398  00000-0 -34221-1 0  9996","ARG_OF_PERICENTER":"63.0090","REF_FRAME":"TEME","CENTER_NAME":"EARTH","PERIOD":"95.677","INCLINATION":"53.0545","CLASSIFICATION_TYPE":"U","LAUNCH_DATE":"2021-05-26","REV_AT_EPOCH":"130","DECAY_DATE":null,"EPOCH":"2022-05-26T22:00:00.999936","TLE_LINE2":"2 48681  53.0545 169.1288 0001430  63.0090  32.0918 15.05056585  1309","MEAN_MOTION":"15.05056585"},{"RA_OF_ASC_NODE":"159.1327","MEAN_ANOMALY":"24.4184","OBJECT_TYPE":"PAYLOAD","EPHEMERIS_TYPE":"0","OBJECT_NAME":"STARLINK-2743","CENTER_NAME":"EARTH","PERIOD":"95.594","RCS_SIZE":"LARGE","TLE_LINE1":"1 48682U 21044AW  22146.91667824  .00036628  00000-0  24673-2 0  9996","REF_FRAME":"TEME","ARG_OF_PERICENTER":"49.1275","LAUNCH_DATE":"2021-05-26","REV_AT_EPOCH":"130","INCLINATION":"53.0541","CLASSIFICATION_TYPE":"U","TLE_LINE2":"2 48682  53.0541 159.1327 0001844  49.1275  24.4184 15.06367181  1306","MEAN_MOTION":"15.06367181","EPOCH":"2022-05-26T22:00:00.999936","DECAY_DATE":null,"PERIAPSIS":"546.037","COUNTRY_CODE":"US","FILE":"3466271","MEAN_MOTION_DDOT":"0.0000000000000","BSTAR":"0.00246730000000","APOAPSIS":"548.591","ECCENTRICITY":"0.00018440","NORAD_CAT_ID":"48682","OBJECT_ID":"2021-044AW","TIME_SYSTEM":"UTC","ELEMENT_SET_NO":"999","MEAN_ELEMENT_THEORY":"SGP4","MEAN_MOTION_DOT":"0.00036628","SITE":"AFETR","GP_ID":"204627854","SEMIMAJOR_AXIS":"6925.449"}];
